NORAD_CAT_ID,OBJECT_NAME,OBJECT_TYPE,EPOCH,MEAN_MOTION,ECCENTRICITY,INCLINATION,RA_OF_ASC_NODE,ARG_OF_PERICENTER,MEAN_ANOMALY,BSTAR,MEAN_MOTION_DOT,MEAN_MOTION_DDOT,TLE_LINE0,TLE_LINE1,TLE_LINE2,SEMIMAJOR_AXIS,PERIOD,APOGEE,PERIGEE,DECAYED
52473.0,STARLINK-3879,PAYLOAD,2023-08-09 07:43:19,15.08844272,9.67e-05,53.2171,334.0646,72.3642,287.7456,5.1929e-05,5.39e-06,0.0,0 STARLINK-3879,1 52473U 22049Y   23221.32175192  .00000539  00000-0  51929-4 0  9995,2 52473  53.2171 334.0646 0000967  72.3642 287.7456 15.08844272 69997,6917.867,95.437,540.401,539.063,0.0
52473.0,STARLINK-3879,PAYLOAD,2023-08-10 17:06:24,15.08860963,0.0001114,53.2174,327.8189,70.9322,289.1791,0.00069017,0.00010719,0.0,0 STARLINK-3879,1 52473U 22049Y   23222.71278678  .00010719  00000-0  69017-3 0  9999,2 52473  53.2174 327.8189 0001114  70.9322 289.1791 15.08860963 70205,6917.816,95.436,540.452,538.911,0.0
52473.0,STARLINK-3879,PAYLOAD,2023-08-11 07:24:53,15.08840779,7.46e-05,53.2188,325.1439,60.381,299.7257,1.3539e-05,-7.2e-07,0.0,0 STARLINK-3879,1 52473U 22049Y   23223.30894971 -.00000072  00000-0  13539-4 0  9996,2 52473  53.2188 325.1439 0000746  60.3810 299.7257 15.08840779 70290,6917.878,95.438,540.259,539.227,0.0
52473.0,STARLINK-3879,PAYLOAD,2023-08-11 16:57:11,15.08854658,9.57e-05,53.2178,323.3584,75.5867,284.5232,0.00062639,9.699e-05,0.0,0 STARLINK-3879,1 52473U 22049Y   23223.70638575  .00009699  00000-0  62639-3 0  9993,2 52473  53.2178 323.3584 0000957  75.5867 284.5232 15.08854658 70357,6917.836,95.437,540.363,539.039,0.0
52473.0,STARLINK-3879,PAYLOAD,2023-08-11 23:18:44,15.08841241,9.4e-05,53.2165,322.166,59.7702,300.3383,0.00029642,4.433e-05,0.0,0 STARLINK-3879,1 52473U 22049Y   23223.97134749  .00004433  00000-0  29642-3 0  9994,2 52473  53.2165 322.1660 0000940  59.7702 300.3383 15.08841241 70391,6917.877,95.437,540.392,539.091,0.0
52473.0,STARLINK-3879,PAYLOAD,2023-08-12 23:09:31,15.08842222,8.57e-05,53.2177,317.7105,89.0698,271.0392,0.00044551,6.81e-05,0.0,0 STARLINK-3879,1 52473U 22049Y   23224.96495063  .00006810  00000-0  44551-3 0  9990,2 52473  53.2177 317.7105 0000857  89.0698 271.0392 15.08842222 70546,6917.874,95.437,540.331,539.146,0.0
52473.0,STARLINK-3879,PAYLOAD,2023-08-13 23:00:18,15.08834606,8.71e-05,53.2168,313.2458,88.2694,271.8398,2.4151e-05,9.7e-07,0.0,0 STARLINK-3879,1 52473U 22049Y   23225.95855179  .00000097  00000-0  24151-4 0  9994,2 52473  53.2168 313.2458 0000871  88.2694 271.8398 15.08834606 70698,6917.897,95.438,540.364,539.159,0.0
52473.0,STARLINK-3879,PAYLOAD,2023-08-15 09:58:47,15.08843402,0.0001049,53.216,306.7068,82.4047,277.7065,0.00021722,3.171e-05,0.0,0 STARLINK-3879,1 52473U 22049Y   23227.41583291  .00003171  00000-0  21722-3 0  9996,2 52473  53.2160 306.7068 0001049  82.4047 277.7065 15.08843402 70915,6917.87,95.437,540.461,539.009,0.0
52473.0,STARLINK-3879,PAYLOAD,2023-08-16 11:24:58,15.08840801,0.0001367,53.218,301.9515,72.4206,287.6935,0.00011867,1.601e-05,0.0,0 STARLINK-3879,1 52473U 22049Y   23228.47567699  .00001601  00000-0  11867-3 0  9992,2 52473  53.2180 301.9515 0001367  72.4206 287.6935 15.08840801 71074,6917.878,95.438,540.689,538.797,0.0
52473.0,STARLINK-3879,PAYLOAD,2023-08-18 09:31:09,15.08825278,0.000107,53.2175,293.3256,93.1628,266.9486,0.00018662,2.682e-05,0.0,0 STARLINK-3879,1 52473U 22049Y   23230.39664348  .00002682  00000-0  18662-3 0  9995,2 52473  53.2175 293.3256 0001070  93.1628 266.9486 15.08825278 71367,6917.925,95.438,540.531,539.05,0.0
52473.0,STARLINK-3879,PAYLOAD,2023-08-18 11:06:32,15.08835709,0.0001135,53.2176,293.0284,91.2534,268.8588,2.8399e-05,1.64e-06,0.0,0 STARLINK-3879,1 52473U 22049Y   23230.46287922  .00000164  00000-0  28399-4 0  9994,2 52473  53.2176 293.0284 0001135  91.2534 268.8588 15.08835709 71378,6917.894,95.438,540.544,538.973,0.0
52473.0,STARLINK-3879,PAYLOAD,2023-08-19 10:57:19,15.08843442,0.0001255,53.2185,288.5689,100.0825,260.0309,5.7381e-05,6.26e-06,0.0,0 STARLINK-3879,1 52473U 22049Y   23231.45647339  .00000626  00000-0  57381-4 0  9992,2 52473  53.2185 288.5689 0001255 100.0825 260.0309 15.08843442 71526,6917.87,95.437,540.603,538.867,0.0
52473.0,STARLINK-3879,PAYLOAD,2023-08-20 02:51:11,15.08832639,0.0001233,53.2182,285.5956,98.9215,261.1917,6.6215e-05,7.66e-06,0.0,0 STARLINK-3879,1 52473U 22049Y   23232.11888112  .00000766  00000-0  66215-4 0  9993,2 52473  53.2182 285.5956 0001233  98.9215 261.1917 15.08832639 71625,6917.903,95.438,540.621,538.915,0.0
52473.0,STARLINK-3879,PAYLOAD,2023-08-21 10:38:53,15.0884216,0.0001202,53.2175,279.6482,93.2757,266.8373,5.7975e-05,6.35e-06,0.0,0 STARLINK-3879,1 52473U 22049Y   23233.44367848  .00000635  00000-0  57975-4 0  9996,2 52473  53.2175 279.6482 0001202  93.2757 266.8373 15.08842160 71820,6917.874,95.437,540.57,538.907,0.0
52473.0,STARLINK-3879,PAYLOAD,2023-08-22 04:08:08,15.08837391,0.0001159,53.2174,276.3765,87.5329,272.5796,5.5945e-05,6.03e-06,0.0,0 STARLINK-3879,1 52473U 22049Y   23234.17232283  .00000603  00000-0  55945-4 0  9991,2 52473  53.2174 276.3765 0001159  87.5329 272.5796 15.08837391 71934,6917.888,95.438,540.555,538.952,0.0
52473.0,STARLINK-3879,PAYLOAD,2023-08-23 08:45:04,15.08843401,0.0001223,53.2167,271.024,88.0937,272.0195,7.6955e-05,9.37e-06,0.0,0 STARLINK-3879,1 52473U 22049Y   23235.36463829  .00000937  00000-0  76955-4 0  9999,2 52473  53.2167 271.0240 0001223  88.0937 272.0195 15.08843401 72117,6917.87,95.437,540.581,538.889,0.0
52473.0,STARLINK-3879,PAYLOAD,2023-08-24 08:35:52,15.08838005,0.0001328,53.2171,266.5638,85.6286,274.4858,2.0524e-05,3.9e-07,0.0,0 STARLINK-3879,1 52473U 22049Y   23236.35824369  .00000039  00000-0  20524-4 0  9993,2 52473  53.2171 266.5638 0001328  85.6286 274.4858 15.08838005 72103,6917.886,95.438,540.67,538.833,0.0
52473.0,STARLINK-3879,PAYLOAD,2023-08-25 06:51:15,15.08840797,0.0001344,53.2169,262.401,84.3468,275.7678,3.0721e-05,2.01e-06,0.0,0 STARLINK-3879,1 52473U 22049Y   23237.28560175  .00000201  00000-0  30721-4 0  9999,2 52473  53.2169 262.4010 0001344  84.3468 275.7678 15.08840797 72403,6917.878,95.438,540.673,538.813,0.0
52473.0,STARLINK-3879,PAYLOAD,2023-08-26 06:42:03,15.08836993,0.0001311,53.2172,257.9392,93.1629,266.9514,4.6836e-05,4.58e-06,0.0,0 STARLINK-3879,1 52473U 22049Y   23238.27920426  .00000458  00000-0  46836-4 0  9996,2 52473  53.2172 257.9392 0001311  93.1629 266.9514 15.08836993 72392,6917.89,95.438,540.662,538.848,0.0
52473.0,STARLINK-3879,PAYLOAD,2023-08-27 01:46:40,15.08838959,0.0001285,53.2177,254.371,93.8214,266.2925,3.38e-05,2.5e-06,0.0,0 STARLINK-3879,1 52473U 22049Y   23239.07408464  .00000250  00000-0  33800-4 0  9995,2 52473  53.2177 254.3710 0001285  93.8214 266.2925 15.08838959 72673,6917.884,95.438,540.638,538.86,0.0
52473.0,STARLINK-3879,PAYLOAD,2023-08-27 04:57:27,15.08838589,0.0001318,53.2173,253.776,94.6421,265.4722,3.0693e-05,2.01e-06,0.0,0 STARLINK-3879,1 52473U 22049Y   23239.20656506  .00000201  00000-0  30693-4 0  9995,2 52473  53.2173 253.7760 0001318  94.6421 265.4722 15.08838589 72533,6917.885,95.438,540.661,538.838,0.0
52473.0,STARLINK-3879,PAYLOAD,2023-08-28 07:59:00,15.08835851,0.000129,53.2162,248.7202,87.4367,272.6773,3.1919e-05,2.2e-06,0.0,0 STARLINK-3879,1 52473U 22049Y   23240.33264884  .00000220  00000-0  31919-4 0  9998,2 52473  53.2162 248.7202 0001290  87.4367 272.6773 15.08835851 72865,6917.893,95.438,540.65,538.866,0.0
52473.0,STARLINK-3879,PAYLOAD,2023-08-28 17:31:19,15.08837424,0.000131,53.2161,246.936,88.6088,271.5054,3.9845e-05,3.46e-06,0.0,0 STARLINK-3879,1 52473U 22049Y   23240.73008831  .00000346  00000-0  39845-4 0  9995,2 52473  53.2161 246.9360 0001310  88.6088 271.5054 15.08837424 72762,6917.888,95.438,540.66,538.847,0.0
52473.0,STARLINK-3879,PAYLOAD,2023-08-29 07:49:47,15.08841958,0.0001378,53.2166,244.26,90.1106,270.0044,8.0966e-05,1.001e-05,0.0,0 STARLINK-3879,1 52473U 22049Y   23241.32624491  .00001001  00000-0  80966-4 0  9996,2 52473  53.2166 244.2600 0001378  90.1106 270.0044 15.08841958 73017,6917.874,95.437,540.693,538.786,0.0
52473.0,STARLINK-3879,PAYLOAD,2023-08-30 01:19:02,15.08833971,0.0001418,53.2167,240.9894,90.3114,269.8041,3.0266e-05,1.94e-06,0.0,0 STARLINK-3879,1 52473U 22049Y   23242.05489301  .00000194  00000-0  30266-4 0  9996,2 52473  53.2167 240.9894 0001418  90.3114 269.8041 15.08833971 73123,6917.899,95.438,540.745,538.783,0.0
52473.0,STARLINK-3879,PAYLOAD,2023-08-30 17:12:53,15.08838852,0.0001457,53.2168,238.0161,88.1553,271.9606,5.2801e-05,5.52e-06,0.0,0 STARLINK-3879,1 52473U 22049Y   23242.71729072  .00000552  00000-0  52801-4 0  9998,2 52473  53.2168 238.0161 0001457  88.1553 271.9606 15.08838852 73061,6917.884,95.438,540.757,538.741,0.0
52473.0,STARLINK-3879,PAYLOAD,2023-08-31 09:06:44,15.08845634,0.0001512,53.217,235.0424,87.904,272.2125,6.2888e-05,7.13e-06,0.0,0 STARLINK-3879,1 52473U 22049Y   23243.37968563  .00000713  00000-0  62888-4 0  9996,2 52473  53.2170 235.0424 0001512  87.9040 272.2125 15.08845634 73328,6917.863,95.437,540.774,538.682,0.0
52473.0,STARLINK-3879,PAYLOAD,2023-09-01 10:32:55,15.08840814,0.0001527,53.2164,230.2841,91.0304,269.0864,6.4343e-05,7.36e-06,0.0,0 STARLINK-3879,1 52473U 22049Y   23244.43952814  .00000736  00000-0  64343-4 0  9999,2 52473  53.2164 230.2841 0001527  91.0304 269.0864 15.08840814 73482,6917.878,95.438,540.799,538.687,0.0
52473.0,STARLINK-3879,PAYLOAD,2023-09-02 08:48:19,15.08839786,0.0001739,53.2154,226.1203,97.0244,263.0946,3.8228e-05,3.2e-06,0.0,0 STARLINK-3879,1 52473U 22049Y   23245.36688940  .00000320  00000-0  38228-4 0  9990,2 52473  53.2154 226.1203 0001739  97.0244 263.0946 15.08839786 73460,6917.881,95.438,540.949,538.543,0.0
52473.0,STARLINK-3879,PAYLOAD,2023-09-02 23:06:47,15.0883752,0.0001845,53.215,223.4437,97.326,262.7942,4.4887e-05,4.26e-06,0.0,0 STARLINK-3879,1 52473U 22049Y   23245.96305106  .00000426  00000-0  44887-4 0  9991,2 52473  53.2150 223.4437 0001845  97.3260 262.7942 15.08837520 73718,6917.888,95.438,541.029,538.477,0.0
